CUTE-1 (CO-55)          
1 27844U 03031E   26123.56975645  .00000309  00000+0  15277-3 0  9999
2 27844  98.6751 132.6882 0008724 321.2101  38.8451 14.24307791185320
CUBESAT XI-IV (CO-57)   
1 27848U 03031J   26123.95760587  .00000249  00000+0  12844-3 0  9993
2 27848  98.6785 132.8198 0008947 339.7792  20.3031 14.23596834185080
CUBESAT XI-V            
1 28895U 05043F   26123.89590397  .00001451  00000+0  23645-3 0  9991
2 28895  98.2936 278.6038 0013730 351.3767   8.7201 14.72514664 95238
CUTE-1.7+APD II (CO-65) 
1 32785U 08021C   26124.22527500  .00005511  00000+0  35213-3 0  9992
2 32785  97.8262 104.7513 0009193 167.9764 192.1685 15.09037194978560
CANX-2                  
1 32790U 08021H   26123.88837727  .00004822  00000+0  34126-3 0  9990
2 32790  97.8618 102.8240 0010160 186.0778 174.0326 15.05301575978148
SEEDS II (CO-66)        
1 32791U 08021J   26123.91535554  .00018995  00000+0  63092-3 0  9998
2 32791  97.7525 119.7563 0005110 101.6715 258.5098 15.31250042980512
SWISSCUBE               
1 35932U 09051B   26124.17493337  .00000995  00000+0  20656-3 0  9993
2 35932  98.4062  31.2942 0006856   1.6813 358.4410 14.62394901882729
BEESAT-1                
1 35933U 09051C   26124.16167535  .00000830  00000+0  17667-3 0  9997
2 35933  98.3990  31.0076 0005674  18.1265 342.0137 14.61647043882751
ITUPSAT1                
1 35935U 09051E   26124.18263478  .00000764  00000+0  16787-3 0  9992
2 35935  98.4076  30.2670 0008050  24.5193 335.6388 14.60372964882316
TISAT 1                 
1 36799U 10035E   26123.40665160  .00023789  00000+0  81961-3 0  9991
2 36799  98.0697  66.0550 0004233  70.1615 290.0080 15.30023261860858
AEROCUBE 4.5A           
1 38767U 12048K   26123.44213155  .00177109  00000+0  11320-2 0  9998
2 38767  64.6308 187.6975 0021738 216.0961 143.8725 15.75249574365574
STRAND-1                
1 39090U 13009E   26123.42805204  .00000294  00000+0  11340-3 0  9999
2 39090  98.3913 304.7663 0008803  13.1955 346.9460 14.37136555690634
BRITE-AUSTRIA           
1 39091U 13009F   26124.04861671  .00000181  00000+0  76118-4 0  9999
2 39091  98.3985 304.5791 0010502  18.8478 341.3095 14.36524279690710
