[
    {
        "ARG_OF_PERICENTER": 321.2101,
        "BSTAR": 0.00015277,
        "CLASSIFICATION_TYPE": "U",
        "ECCENTRICITY": 0.0008724,
        "ELEMENT_SET_NO": 999,
        "EPHEMERIS_TYPE": 0,
        "EPOCH": "2026-05-03T13:40:26.957280",
        "INCLINATION": 98.6751,
        "MEAN_ANOMALY": 38.8451,
        "MEAN_MOTION": 14.24307791,
        "MEAN_MOTION_DDOT": 0,
        "MEAN_MOTION_DOT": 3.09e-06,
        "NORAD_CAT_ID": 27844,
        "OBJECT_ID": "2003-031E",
        "OBJECT_NAME": "CUTE-1 (CO-55)",
        "RA_OF_ASC_NODE": 132.6882,
        "REV_AT_EPOCH": 18532
    },
    {
        "ARG_OF_PERICENTER": 339.7792,
        "BSTAR": 0.00012844,
        "CLASSIFICATION_TYPE": "U",
        "ECCENTRICITY": 0.0008947,
        "ELEMENT_SET_NO": 999,
        "EPHEMERIS_TYPE": 0,
        "EPOCH": "2026-05-03T22:58:57.147168",
        "INCLINATION": 98.6785,
        "MEAN_ANOMALY": 20.3031,
        "MEAN_MOTION": 14.23596834,
        "MEAN_MOTION_DDOT": 0,
        "MEAN_MOTION_DOT": 2.49e-06,
        "NORAD_CAT_ID": 27848,
        "OBJECT_ID": "2003-031J",
        "OBJECT_NAME": "CUBESAT XI-IV (CO-57)",
        "RA_OF_ASC_NODE": 132.8198,
        "REV_AT_EPOCH": 18508
    },
    {
        "ARG_OF_PERICENTER": 351.3767,
        "BSTAR": 0.00023645,
        "CLASSIFICATION_TYPE": "U",
        "ECCENTRICITY": 0.001373,
        "ELEMENT_SET_NO": 999,
        "EPHEMERIS_TYPE": 0,
        "EPOCH": "2026-05-03T21:30:06.103008",
        "INCLINATION": 98.2936,
        "MEAN_ANOMALY": 8.7201,
        "MEAN_MOTION": 14.72514664,
        "MEAN_MOTION_DDOT": 0,
        "MEAN_MOTION_DOT": 1.451e-05,
        "NORAD_CAT_ID": 28895,
        "OBJECT_ID": "2005-043F",
        "OBJECT_NAME": "CUBESAT XI-V",
        "RA_OF_ASC_NODE": 278.6038,
        "REV_AT_EPOCH": 9523
    },
    {
        "ARG_OF_PERICENTER": 167.9764,
        "BSTAR": 0.00035213,
        "CLASSIFICATION_TYPE": "U",
        "ECCENTRICITY": 0.0009193,
        "ELEMENT_SET_NO": 999,
        "EPHEMERIS_TYPE": 0,
        "EPOCH": "2026-05-04T05:24:23.760000",
        "INCLINATION": 97.8262,
        "MEAN_ANOMALY": 192.1685,
        "MEAN_MOTION": 15.09037194,
        "MEAN_MOTION_DDOT": 0,
        "MEAN_MOTION_DOT": 5.511e-05,
        "NORAD_CAT_ID": 32785,
        "OBJECT_ID": "2008-021C",
        "OBJECT_NAME": "CUTE-1.7+APD II (CO-65)",
        "RA_OF_ASC_NODE": 104.7513,
        "REV_AT_EPOCH": 97856
    },
    {
        "ARG_OF_PERICENTER": 186.0778,
        "BSTAR": 0.00034126068,
        "CLASSIFICATION_TYPE": "U",
        "ECCENTRICITY": 0.00101605,
        "ELEMENT_SET_NO": 999,
        "EPHEMERIS_TYPE": 0,
        "EPOCH": "2026-05-03T21:19:15.796128",
        "INCLINATION": 97.8618,
        "MEAN_ANOMALY": 174.0326,
        "MEAN_MOTION": 15.05301575,
        "MEAN_MOTION_DDOT": 0,
        "MEAN_MOTION_DOT": 4.822e-05,
        "NORAD_CAT_ID": 32790,
        "OBJECT_ID": "2008-021H",
        "OBJECT_NAME": "CANX-2",
        "RA_OF_ASC_NODE": 102.824,
        "REV_AT_EPOCH": 97814
    },
    {
        "ARG_OF_PERICENTER": 101.6715,
        "BSTAR": 0.00063092,
        "CLASSIFICATION_TYPE": "U",
        "ECCENTRICITY": 0.000511,
        "ELEMENT_SET_NO": 999,
        "EPHEMERIS_TYPE": 0,
        "EPOCH": "2026-05-03T21:58:06.718656",
        "INCLINATION": 97.7525,
        "MEAN_ANOMALY": 258.5098,
        "MEAN_MOTION": 15.31250042,
        "MEAN_MOTION_DDOT": 0,
        "MEAN_MOTION_DOT": 0.00018995,
        "NORAD_CAT_ID": 32791,
        "OBJECT_ID": "2008-021J",
        "OBJECT_NAME": "SEEDS II (CO-66)",
        "RA_OF_ASC_NODE": 119.7563,
        "REV_AT_EPOCH": 98051
    },
    {
        "ARG_OF_PERICENTER": 1.6813,
        "BSTAR": 0.00020656,
        "CLASSIFICATION_TYPE": "U",
        "ECCENTRICITY": 0.0006856,
        "ELEMENT_SET_NO": 999,
        "EPHEMERIS_TYPE": 0,
        "EPOCH": "2026-05-04T04:11:54.243168",
        "INCLINATION": 98.4062,
        "MEAN_ANOMALY": 358.441,
        "MEAN_MOTION": 14.62394901,
        "MEAN_MOTION_DDOT": 0,
        "MEAN_MOTION_DOT": 9.95e-06,
        "NORAD_CAT_ID": 35932,
        "OBJECT_ID": "2009-051B",
        "OBJECT_NAME": "SWISSCUBE",
        "RA_OF_ASC_NODE": 31.2942,
        "REV_AT_EPOCH": 88272
    },
    {
        "ARG_OF_PERICENTER": 18.1265,
        "BSTAR": 0.00017667,
        "CLASSIFICATION_TYPE": "U",
        "ECCENTRICITY": 0.0005674,
        "ELEMENT_SET_NO": 999,
        "EPHEMERIS_TYPE": 0,
        "EPOCH": "2026-05-04T03:52:48.750240",
        "INCLINATION": 98.399,
        "MEAN_ANOMALY": 342.0137,
        "MEAN_MOTION": 14.61647043,
        "MEAN_MOTION_DDOT": 0,
        "MEAN_MOTION_DOT": 8.3e-06,
        "NORAD_CAT_ID": 35933,
        "OBJECT_ID": "2009-051C",
        "OBJECT_NAME": "BEESAT-1",
        "RA_OF_ASC_NODE": 31.0076,
        "REV_AT_EPOCH": 88275
    },
    {
        "ARG_OF_PERICENTER": 24.5193,
        "BSTAR": 0.00016787,
        "CLASSIFICATION_TYPE": "U",
        "ECCENTRICITY": 0.000805,
        "ELEMENT_SET_NO": 999,
        "EPHEMERIS_TYPE": 0,
        "EPOCH": "2026-05-04T04:22:59.644992",
        "INCLINATION": 98.4076,
        "MEAN_ANOMALY": 335.6388,
        "MEAN_MOTION": 14.60372964,
        "MEAN_MOTION_DDOT": 0,
        "MEAN_MOTION_DOT": 7.64e-06,
        "NORAD_CAT_ID": 35935,
        "OBJECT_ID": "2009-051E",
        "OBJECT_NAME": "ITUPSAT1",
        "RA_OF_ASC_NODE": 30.267,
        "REV_AT_EPOCH": 88231
    },
    {
        "ARG_OF_PERICENTER": 70.1615,
        "BSTAR": 0.00081961144,
        "CLASSIFICATION_TYPE": "U",
        "ECCENTRICITY": 0.00042333,
        "ELEMENT_SET_NO": 999,
        "EPHEMERIS_TYPE": 0,
        "EPOCH": "2026-05-03T09:45:34.698240",
        "INCLINATION": 98.0697,
        "MEAN_ANOMALY": 290.008,
        "MEAN_MOTION": 15.30023261,
        "MEAN_MOTION_DDOT": 0,
        "MEAN_MOTION_DOT": 0.00023789,
        "NORAD_CAT_ID": 36799,
        "OBJECT_ID": "2010-035E",
        "OBJECT_NAME": "TISAT 1",
        "RA_OF_ASC_NODE": 66.055,
        "REV_AT_EPOCH": 86085
    },
    {
        "ARG_OF_PERICENTER": 216.0961,
        "BSTAR": 0.0011320032,
        "CLASSIFICATION_TYPE": "U",
        "ECCENTRICITY": 0.00217389,
        "ELEMENT_SET_NO": 999,
        "EPHEMERIS_TYPE": 0,
        "EPOCH": "2026-05-03T10:36:40.165920",
        "INCLINATION": 64.6308,
        "MEAN_ANOMALY": 143.8725,
        "MEAN_MOTION": 15.75249574,
        "MEAN_MOTION_DDOT": 0,
        "MEAN_MOTION_DOT": 0.00177109,
        "NORAD_CAT_ID": 38767,
        "OBJECT_ID": "2012-048K",
        "OBJECT_NAME": "AEROCUBE 4.5A",
        "RA_OF_ASC_NODE": 187.6975,
        "REV_AT_EPOCH": 36557
    },
    {
        "ARG_OF_PERICENTER": 13.1955,
        "BSTAR": 0.00011340139,
        "CLASSIFICATION_TYPE": "U",
        "ECCENTRICITY": 0.00088031,
        "ELEMENT_SET_NO": 999,
        "EPHEMERIS_TYPE": 0,
        "EPOCH": "2026-05-03T10:16:23.696256",
        "INCLINATION": 98.3913,
        "MEAN_ANOMALY": 346.946,
        "MEAN_MOTION": 14.37136555,
        "MEAN_MOTION_DDOT": 0,
        "MEAN_MOTION_DOT": 2.94e-06,
        "NORAD_CAT_ID": 39090,
        "OBJECT_ID": "2013-009E",
        "OBJECT_NAME": "STRAND-1",
        "RA_OF_ASC_NODE": 304.7663,
        "REV_AT_EPOCH": 69063
    },
    {
        "ARG_OF_PERICENTER": 18.8478,
        "BSTAR": 7.6118e-05,
        "CLASSIFICATION_TYPE": "U",
        "ECCENTRICITY": 0.0010502,
        "ELEMENT_SET_NO": 999,
        "EPHEMERIS_TYPE": 0,
        "EPOCH": "2026-05-04T01:10:00.483744",
        "INCLINATION": 98.3985,
        "MEAN_ANOMALY": 341.3095,
        "MEAN_MOTION": 14.36524279,
        "MEAN_MOTION_DDOT": 0,
        "MEAN_MOTION_DOT": 1.81e-06,
        "NORAD_CAT_ID": 39091,
        "OBJECT_ID": "2013-009F",
        "OBJECT_NAME": "BRITE-AUSTRIA",
        "RA_OF_ASC_NODE": 304.5791,
        "REV_AT_EPOCH": 69071
    }
]